ONEWEB-0317             
1 49103U 21075AE  23270.52800063  .00000353  00000+0  94534-3 0  9998
2 49103  87.9072 188.2211 0001975  67.3686 292.7652 13.12446581104859
ONEWEB-0318             
1 49104U 21075AF  23270.78170635  .00000082  00000+0  17564-3 0  9999
2 49104  87.9227 173.0544 0001585  86.1423 273.9891 13.18686958107240
ONEWEB-0319             
1 49105U 21075AG  23270.32222689  .00000168  00000+0  39883-3 0  9990
2 49105  87.9250 203.3662 0001319  87.7437 272.3845 13.17646418102728
ONEWEB-0323             
1 49106U 21075AH  23270.51847362  .00000076  00000+0  17517-3 0  9991
2 49106  87.9071 188.2115 0001645  78.5781 281.5532 13.12443898104219
ONEWEB-0329             
1 49107U 21075AJ  23270.32855382 -.00000152  00000+0 -42550-3 0  9994
2 49107  87.9250 203.3679 0001668  74.0502 286.0813 13.17649246102704
ONEWEB-0330             
1 49108U 21075AK  23270.33066536  .00000078  00000+0  16829-3 0  9996
2 49108  87.9239 203.3813 0001696  67.6629 292.4682 13.17651839102741
ONEWEB-0292             
1 49186U 21083A   23270.42705331 -.00000130  00000+0 -39072-3 0  9990
2 49186  87.9062 157.9677 0001789  78.3071 281.8259 13.13471886100474
ONEWEB-0303             
1 49187U 21083B   23270.77748396  .00000074  00000+0  15562-3 0  9990
2 49187  87.9226 173.0582 0001611  81.5419 278.5895 13.18686194100336
